EROS B                  
1 29079U 06014A   17346.49439946  .00001830  00000-0  82781-4 0  9999
2 29079  97.3707 103.7502 0002036 294.5342 123.3953 15.22164880645503
